ACS3                    
1 59588U 24077B   24203.77724972  .00000092  00000+0  14234-3 0  9998
2 59588  97.4045 263.9212 0020104   4.1018 356.0294 13.67692777 12133
